STARLINK-3419           
1 51463U 22010H   26068.87293523  .00002790  00000+0  19341-3 0  9993
2 51463  53.2160 278.2949 0001293 119.6861 240.4260 15.08823731226541
SEDNA-2                 
1 63153U 25009DQ  26068.79893845  .00008085  00000+0  49393-3 0  9990
2 63153  97.4615 144.8075 0010309  53.0260 307.1912 15.10492622 63116
